BEESAT-4                
1 41619U 16040W   22321.35931193  .00017933  00000+0  50883-3 0  9995
2 41619  97.1968   8.1822 0006410 291.4554  68.6006 15.36251454344154
CAS-2T & KS-1Q          
1 41847U 16066G   22321.41567661  .00000984  00000+0  15516-3 0  9990
2 41847  98.5337  25.8089 0363723 112.1363 251.8849 14.38906146316340
NAYIF-1 (EO-88)         
1 42017U 17008BX  22321.15887185  .00023095  00000+0  56375-3 0  9990
2 42017  97.2504  25.4387 0005234  67.5421 292.6379 15.40846452320531
ZHUHAI-1 02 (CAS-4B)    
1 42759U 17034B   22321.59339279  .00006140  00000+0  35110-3 0  9992
2 42759  43.0170 207.8980 0009448 185.9877 250.0329 15.13268480299546
ZHUHAI-1 01 (CAS-4A)    
1 42761U 17034D   22321.55303389  .00005994  00000+0  34220-3 0  9991
2 42761  43.0166 206.7980 0010022 187.3767 241.3091 15.13357942299547
MAX VALIER SAT          
1 42778U 17036P   22321.54584027  .00009536  00000+0  33104-3 0  9996
2 42778  97.1881 357.4869 0011362 134.1000 226.1178 15.29916359300288
RADFXSAT (FOX-1B)       
1 43017U 17073E   22321.24024351  .00004530  00000+0  33461-3 0  9995
2 43017  97.6542 209.1193 0245890  47.2524 314.9096 14.82599341269743
FOX-1D (AO-92)          
1 43137U 18004AC  22321.18481721  .00011827  00000+0  37379-3 0  9993
2 43137  97.3552  35.1571 0007442 169.0934 191.0471 15.32933066269718
DIWATA-2B               
1 43678U 18084H   22321.52912066  .00001073  00000+0  11027-3 0  9994
2 43678  97.9925  96.8213 0010644 135.2028 225.0062 14.92486514220685
ES'HAIL 2               
1 43700U 18090A   22321.18450578  .00000159  00000+0  00000+0 0  9993
2 43700   0.0134 276.8180 0001402 346.4495 245.2339  1.00273898 14560
FOX-1CLIFF (AO-95)      
1 43770U 18099N   22321.14565984  .00002204  00000+0  19461-3 0  9991
2 43770  97.6048  23.4577 0015256 119.7663 240.5079 14.97288998215850
ITASAT 1                
1 43786U 18099AE  22321.46302010  .00003059  00000+0  26788-3 0  9991
2 43786  97.6068  24.7601 0016319 113.1518 247.1425 14.97317084215946
JY1SAT (JO-97)          
1 43803U 18099AX  22321.42217880  .00002164  00000+0  18768-3 0  9992
2 43803  97.6034  24.5353 0015528 111.1860 249.1024 14.98010868215960
UWE-4                   
1 43880U 18111E   22321.37601116  .00002523  00000+0  21189-3 0  9995
2 43880  97.6581 224.9929 0011033 156.5298 203.6430 14.99170474212607
NEXUS (FO-99)           
1 43937U 19003F   22321.54822611  .00014874  00000+0  43652-3 0  9994
2 43937  97.1160 349.2042 0017245 331.2260  28.8031 15.35101586213421
PSAT2 (NO-104)          
1 44354U 19036R   22320.94863362  .00088402 -47538-5  47609-3 0  9993
2 44354  28.5201 186.2961 0154223 274.9457  83.3559 15.63342203188355
JAISAT-1                
1 44419U 19038F   22321.38268576  .00009745  00000+0  45044-3 0  9992
2 44419  97.6548 293.1567 0016722 330.1075  29.9203 15.20263277186266
DUCHIFAT-3              
1 44854U 19089C   22321.27654735  .00005750  00000+0  43209-3 0  9998
2 44854  36.9642 273.6506 0007483  13.0173 132.7310 15.02337984160919
CAS-6 (TIANQIN 1)       
1 44881U 19093C   22321.45777301  .00000800  00000+0  10743-3 0  9996
2 44881  97.8823  38.3967 0016062  51.7112 308.5542 14.81933990157436
RS-44 & BREEZE-KM R/B   
1 44909U 19096E   22321.42768284  .00000028  00000+0  72188-4 0  9991
2 44909  82.5177 128.6623 0216766 322.2729  36.3337 12.79716639135073
ORBITAL FACTORY 2 (OF-2)
1 45113U 19071C   22321.39865968  .00045195  00000+0  62753-3 0  9995
2 45113  51.6355  21.9958 0011218  12.5998 347.5272 15.56491630157094
HUSKYSAT-1 (HO-107)     
1 45119U 19071J   22321.55242271  .00036225  00000+0  55425-3 0  9997
2 45119  51.6362  22.9873 0010887   9.9783 350.1421 15.53953462157086
BY70-2                  
1 45857U 20042B   22321.48514926  .00010007  00000+0  12627-2 0  9993
2 45857  97.9451  36.9878 0008966 343.5421  16.5459 14.82099662128107
SALSAT                  
1 46495U 20068K   22321.36578553  .00002353  00000+0  16833-3 0  9992
2 46495  97.7456 262.8856 0018095 115.8118 244.4977 15.05313411117182
BY70-3                  
1 46839U 20079N   22321.50645563  .00042393  00000+0  72511-3 0  9991
2 46839  97.1811  32.2195 0005517 134.0552 341.1127 15.51135736113886
RADFXSAT-2 (AO-109)     
1 47311U 21002C   22321.54238726  .00009114  00000+0  33109-3 0  9991
2 47311  60.6828 144.8745 0037533  70.9689 289.5460 15.28336745101832
UVSQ-SAT                
1 47438U 21006AB  22321.42372522  .00006463  00000+0  32266-3 0  9992
2 47438  97.4187  17.3105 0012935 102.6361 257.6320 15.17756850100461
DIY-1 (ARDUIQUBE)       
1 47963U 21022AH  22321.29590499  .00023110  00000+0  10822-2 0  9994
2 47963  97.5169 221.2706 0013971 337.1934  22.8678 15.19640154 90108
XW-3 (CAS-9)            
1 50466U 21131B   22321.54216294  .00000213  00000+0  84260-4 0  9991
2 50466  98.5705  38.6430 0005283  63.0785 297.0942 14.38577547 46923
TEVEL-3                 
1 50988U 22002E   22321.49929715  .00010282  00000+0  52536-3 0  9998
2 50988  97.4644  25.9924 0008042 250.5909 234.5594 15.16843315 46594
TEVEL-8                 
1 50989U 22002F   22321.44356214  .00010382  00000+0  53126-3 0  9999
2 50989  97.4658  25.9726 0007869 246.8638 236.9830 15.16787209 46580
TEVEL-5                 
1 50998U 22002Q   22321.46987616  .00010463  00000+0  52629-3 0  9994
2 50998  97.4643  26.1536 0009240 245.3152 240.7143 15.17380654 46603
TEVEL-6                 
1 50999U 22002R   22321.46904382  .00010477  00000+0  52689-3 0  9995
2 50999  97.4642  26.1500 0009159 245.2083 240.8607 15.17386632 46603
TEVEL-1                 
1 51013U 22002AF  22321.50408756  .00010343  00000+0  52889-3 0  9996
2 51013  97.4636  25.9657 0007980 250.1132 234.5261 15.16814175 46595
TEVEL-7                 
1 51062U 22002CG  22321.44679179  .00010393  00000+0  53190-3 0  9993
2 51062  97.4655  25.9569 0007813 246.9775 243.4140 15.16784634 46583
TEVEL-4                 
1 51063U 22002CH  22321.51132056  .00010271  00000+0  52590-3 0  9998
2 51063  97.4656  26.0154 0007916 248.7872 225.3467 15.16769044 46599
TEVEL-2                 
1 51069U 22002CP  22321.50096344  .00010345  00000+0  52861-3 0  9995
2 51069  97.4635  25.9731 0007981 250.2870 234.7052 15.16838668 46592
GREENCUBE               
1 53106U 22080B   22318.57638152 -.00000003  00000+0  00000+0 0  9992
2 53106  70.1759  34.2802 0008923 231.9986 127.9868  6.42557455  7961
YUZGU 9 (RS3S)          
1 53308U 98067TT  22321.39041402  .00092674  00000+0  90580-3 0  9994
2 53308  51.6371 292.5836 0008471  86.5379 273.6585 15.65351566 18555
YUZGU 7 (RS1S)          
1 53309U 98067TU  22321.43916071  .00095703  00000+0  91592-3 0  9993
2 53309  51.6361 292.1539 0008818  90.8550 269.3456 15.65860594 18516
YUZGU 11 (RS5S)         
1 53310U 98067TV  22321.38925852  .00092052  00000+0  89900-3 0  9990
2 53310  51.6367 292.5755 0008512  90.2497 269.9473 15.65374137 18533
YUZGU 12 (RS6S)         
1 53311U 98067TW  22321.48717063  .00102620  00000+0  96071-3 0  9995
2 53311  51.6362 291.7239 0008581  85.2816 274.9160 15.66381467 18570
TSIOLKOVSKY-RYAZAN 1 (*)
1 53312U 98067TX  22321.43869928  .00089546  00000+0  86624-3 0  9993
2 53312  51.6367 292.1568 0008817  92.1742 268.0263 15.65621055 18503
TSIOLKOVSKY-RYAZAN 2 (*)
1 53313U 98067TY  22321.43620132  .00094483  00000+0  90741-3 0  9997
2 53313  51.6370 292.1404 0008377  92.1386 268.0569 15.65783542 18556
YUZGU 10 (RS4S)         
1 53321U 98067TZ  22321.44795142  .00095027  00000+0  91786-3 0  9996
2 53321  51.6367 292.2177 0008652  88.9528 271.2459 15.65635408 18557
RS29S (SXC3-2110 CYCLO*)
1 53373U 22096D   22321.55283020  .00013944  00000+0  53030-3 0  9999
2 53373  97.4269 222.3466 0002222 117.8542 319.8091 15.26887010 15286
RS32S (SXC3-212 MONITO*)
1 53374U 22096E   22321.55087718  .00013381  00000+0  50772-3 0  9991
2 53374  97.4267 222.3580 0002534 109.7342 356.2844 15.26971489 15281
RS34S (SXC3-218 KUZBAS*)
1 53375U 22096F   22321.56221157  .00011472  00000+0  44055-3 0  9996
2 53375  97.4276 222.3524 0002492 116.6593   6.2149 15.26610690 15282
RS23S (SXC3-21 UTMN)    
1 53376U 22096G   22321.49182775  .00011915  00000+0  45658-3 0  9993
2 53376  97.4268 222.2878 0002503 113.5066 355.8252 15.26671879 15272
RS28S (SXC3-214 MIET-A*)
1 53377U 22096H   22321.48979664  .00010781  00000+0  41396-3 0  9999
2 53377  97.4272 222.2901 0002495 116.0741 348.4862 15.26631469 15279
RS26S (KAI-1)           
1 53378U 22096J   22321.55789144  .00009932  00000+0  38352-3 0  9994
2 53378  97.4274 222.3496 0002809 113.2431 348.0395 15.26463964 15287
RS19S (SXC3-219 ISOI)   
1 53381U 22096M   22321.52891294  .00011138  00000+0  42090-3 0  9990
2 53381  97.4281 222.3977 0006279  91.4712  33.5747 15.27138436 15288
RS21S (CUBESX-HSE-2)    
1 53383U 22096P   22321.45880541  .00011854  00000+0  44717-3 0  9990
2 53383  97.4281 222.3357 0006578  94.9255  19.5683 15.27178497 15277
RS30S (SXC3-217 SIREN)  
1 53384U 22096Q   22321.46072880  .00010488  00000+0  39759-3 0  9993
2 53384  97.4281 222.3318 0006565  92.1682  24.4388 15.27047807 15272
RS20S (GEOSCAN-EDELVEIS)
1 53385U 22096R   22321.49879163  .00014347  00000+0  52970-3 0  9994
2 53385  97.4270 222.4281 0006878  92.0144  12.7993 15.27839498 15312
RS33S (SXC3-215 VIZARD) 
1 53386U 22096S   22321.53682069  .00016863  00000+0  60827-3 0  9992
2 53386  97.4276 222.5272 0007803  90.8863  11.4170 15.28563438 15315
